[{"OBJECT_NAME":"STARLINK-34918","OBJECT_ID":"2025-189J","EPOCH":"2026-03-09T15:48:58.722336","MEAN_MOTION":15.30198722,"ECCENTRICITY":0.00012306,"INCLINATION":53.159,"RA_OF_ASC_NODE":206.7702,"ARG_OF_PERICENTER":69.9895,"MEAN_ANOMALY":290.1238,"EPHEMERIS_TYPE":0,"CLASSIFICATION_TYPE":"U","NORAD_CAT_ID":65331,"ELEMENT_SET_NO":999,"REV_AT_EPOCH":3104,"BSTAR":0.0013208499,"MEAN_MOTION_DOT":0.00038964,"MEAN_MOTION_DDOT":0},{"OBJECT_NAME":"COSMOS 1328","OBJECT_ID":"1981-117A","EPOCH":"2026-03-09T17:51:53.113536","MEAN_MOTION":15.33902077,"ECCENTRICITY":0.00108717,"INCLINATION":82.4939,"RA_OF_ASC_NODE":350.453,"ARG_OF_PERICENTER":167.9725,"MEAN_ANOMALY":192.1779,"EPHEMERIS_TYPE":0,"CLASSIFICATION_TYPE":"U","NORAD_CAT_ID":12987,"ELEMENT_SET_NO":999,"REV_AT_EPOCH":41406,"BSTAR":0.00040501644,"MEAN_MOTION_DOT":0.00013342,"MEAN_MOTION_DDOT":0}]
